start=new Date('2022-02-11T00:00:00.000Z').valueOf();
sats=[{"RA_OF_ASC_NODE":"186.8724","PERIOD":"95.592","NORAD_CAT_ID":"44928","TLE_LINE1":"1 44928U 20001Q   22041.61015944  .00000426  00000-0  47488-4 0  9996","MEAN_MOTION_DOT":"0.00000426","COUNTRY_CODE":"US","REV_AT_EPOCH":"11556","ELEMENT_SET_NO":"999","SEMIMAJOR_AXIS":"6925.360","MEAN_ELEMENT_THEORY":"SGP4","CLASSIFICATION_TYPE":"U","OBJECT_ID":"2020-001Q","FILE":"3297147","TIME_SYSTEM":"UTC","INCLINATION":"53.0527","EPHEMERIS_TYPE":"0","OBJECT_NAME":"STARLINK-1119","DECAY_DATE":null,"ARG_OF_PERICENTER":"77.3798","GP_ID":"195713082","OBJECT_TYPE":"PAYLOAD","MEAN_ANOMALY":"282.7349","SITE":"AFETR","REF_FRAME":"TEME","TLE_LINE2":"2 44928  53.0527 186.8724 0001415  77.3798 282.7349 15.06396416115563","EPOCH":"2022-02-10T14:38:37.775616","LAUNCH_DATE":"2020-01-07","BSTAR":"0.00004748800000","APOAPSIS":"548.204","CENTER_NAME":"EARTH","MEAN_MOTION":"15.06396416","MEAN_MOTION_DDOT":"0.0000000000000","PERIAPSIS":"546.245","RCS_SIZE":"LARGE","ECCENTRICITY":"0.00014150"},{"RA_OF_ASC_NODE":"186.0298","MEAN_MOTION_DOT":"0.00001217","TLE_LINE1":"1 44929U 20001R   22041.79445590  .00001217  00000-0  10058-3 0  9991","PERIOD":"95.592","NORAD_CAT_ID":"44929","REV_AT_EPOCH":"11558","COUNTRY_CODE":"US","OBJECT_ID":"2020-001R","ELEMENT_SET_NO":"999","SEMIMAJOR_AXIS":"6925.333","MEAN_ELEMENT_THEORY":"SGP4","CLASSIFICATION_TYPE":"U","INCLINATION":"53.0534","FILE":"3297147","TIME_SYSTEM":"UTC","OBJECT_NAME":"STARLINK-1121","DECAY_DATE":null,"EPHEMERIS_TYPE":"0","GP_ID":"195711831","ARG_OF_PERICENTER":"76.1108","SITE":"AFETR","REF_FRAME":"TEME","TLE_LINE2":"2 44929  53.0534 186.0298 0001390  76.1108 284.0036 15.06405001115585","OBJECT_TYPE":"PAYLOAD","MEAN_ANOMALY":"284.0036","EPOCH":"2022-02-10T19:04:00.989760","BSTAR":"0.00010058000000","LAUNCH_DATE":"2020-01-07","APOAPSIS":"548.161","MEAN_MOTION":"15.06405001","CENTER_NAME":"EARTH","PERIAPSIS":"546.236","RCS_SIZE":"LARGE","MEAN_MOTION_DDOT":"0.0000000000000","ECCENTRICITY":"0.00013900"},{"ECCENTRICITY":"0.00013860","RCS_SIZE":"LARGE","PERIAPSIS":"546.231","MEAN_MOTION_DDOT":"0.0000000000000","MEAN_MOTION":"15.06407411","CENTER_NAME":"EARTH","APOAPSIS":"548.151","BSTAR":"0.00015099000000","LAUNCH_DATE":"2020-01-07","EPOCH":"2022-02-10T18:16:14.915136","SITE":"AFETR","REF_FRAME":"TEME","TLE_LINE2":"2 44930  53.0519 186.1863 0001386  69.4264 290.6873 15.06407411115581","OBJECT_TYPE":"PAYLOAD","MEAN_ANOMALY":"290.6873","GP_ID":"195712081","ARG_OF_PERICENTER":"69.4264","DECAY_DATE":null,"OBJECT_NAME":"STARLINK-1123","EPHEMERIS_TYPE":"0","INCLINATION":"53.0519","FILE":"3297147","TIME_SYSTEM":"UTC","OBJECT_ID":"2020-001S","ELEMENT_SET_NO":"999","SEMIMAJOR_AXIS":"6925.326","CLASSIFICATION_TYPE":"U","MEAN_ELEMENT_THEORY":"SGP4","REV_AT_EPOCH":"11558","COUNTRY_CODE":"US","TLE_LINE1":"1 44930U 20001S   22041.76128374  .00001969  00000-0  15099-3 0  9992","MEAN_MOTION_DOT":"0.00001969","PERIOD":"95.592","NORAD_CAT_ID":"44930","RA_OF_ASC_NODE":"186.1863"},{"ELEMENT_SET_NO":"999","SEMIMAJOR_AXIS":"6913.905","CLASSIFICATION_TYPE":"U","MEAN_ELEMENT_THEORY":"SGP4","OBJECT_ID":"2020-001T","FILE":"3297147","TIME_SYSTEM":"UTC","INCLINATION":"53.0514","EPHEMERIS_TYPE":"0","DECAY_DATE":null,"OBJECT_NAME":"STARLINK-1128","ARG_OF_PERICENTER":"127.9175","GP_ID":"195712833","RA_OF_ASC_NODE":"184.0930","PERIOD":"95.355","NORAD_CAT_ID":"44931","MEAN_MOTION_DOT":"0.00009889","TLE_LINE1":"1 44931U 20001T   22041.83902628  .00009889  00000-0  61632-3 0  9996","COUNTRY_CODE":"US","REV_AT_EPOCH":"11636","APOAPSIS":"537.531","CENTER_NAME":"EARTH","MEAN_MOTION":"15.10141607","MEAN_MOTION_DDOT":"0.0000000000000","PERIAPSIS":"534.009","RCS_SIZE":"LARGE","ECCENTRICITY":"0.00025470","OBJECT_TYPE":"PAYLOAD","MEAN_ANOMALY":"232.2047","SITE":"AFETR","REF_FRAME":"TEME","TLE_LINE2":"2 44931  53.0514 184.0930 0002547 127.9175 232.2047 15.10141607116369","EPOCH":"2022-02-10T20:08:11.870592","LAUNCH_DATE":"2020-01-07","BSTAR":"0.00061632000000"},{"RA_OF_ASC_NODE":"185.9441","TLE_LINE1":"1 44932U 20001U   22041.81657272  .00001047  00000-0  89218-4 0  9996","MEAN_MOTION_DOT":"0.00001047","NORAD_CAT_ID":"44932","PERIOD":"95.593","REV_AT_EPOCH":"11682","COUNTRY_CODE":"US","OBJECT_ID":"2020-001U","MEAN_ELEMENT_THEORY":"SGP4","CLASSIFICATION_TYPE":"U","SEMIMAJOR_AXIS":"6925.380","ELEMENT_SET_NO":"999","INCLINATION":"53.0533","TIME_SYSTEM":"UTC","FILE":"3297147","OBJECT_NAME":"STARLINK-1130","DECAY_DATE":null,"EPHEMERIS_TYPE":"0","GP_ID":"195712583","ARG_OF_PERICENTER":"68.4307","TLE_LINE2":"2 44932  53.0533 185.9441 0001333  68.4307 291.6824 15.06389769116827","REF_FRAME":"TEME","SITE":"AFETR","MEAN_ANOMALY":"291.6824","OBJECT_TYPE":"PAYLOAD","EPOCH":"2022-02-10T19:35:51.883008","BSTAR":"0.00008921800000","LAUNCH_DATE":"2020-01-07","APOAPSIS":"548.168","MEAN_MOTION":"15.06389769","CENTER_NAME":"EARTH","PERIAPSIS":"546.322","RCS_SIZE":"LARGE","MEAN_MOTION_DDOT":"0.0000000000000","ECCENTRICITY":"0.00013330"},{"MEAN_ANOMALY":"278.8891","OBJECT_TYPE":"PAYLOAD","TLE_LINE2":"2 44933  53.0544 185.8290 0001288  81.2243 278.8891 15.06397175116889","REF_FRAME":"TEME","SITE":"AFETR","EPOCH":"2022-02-10T20:13:01.153344","LAUNCH_DATE":"2020-01-07","BSTAR":"0.00011444000000","APOAPSIS":"548.114","CENTER_NAME":"EARTH","MEAN_MOTION":"15.06397175","MEAN_MOTION_DDOT":"0.0000000000000","PERIAPSIS":"546.330","RCS_SIZE":"LARGE","ECCENTRICITY":"0.00012880","RA_OF_ASC_NODE":"185.8290","NORAD_CAT_ID":"44933","PERIOD":"95.592","TLE_LINE1":"1 44933U 20001V   22041.84237446  .00001423  00000-0  11444-3 0  9990","MEAN_MOTION_DOT":"0.00001423","COUNTRY_CODE":"US","REV_AT_EPOCH":"11688","MEAN_ELEMENT_THEORY":"SGP4","CLASSIFICATION_TYPE":"U","SEMIMAJOR_AXIS":"6925.357","ELEMENT_SET_NO":"999","OBJECT_ID":"2020-001V","TIME_SYSTEM":"UTC","FILE":"3297147","INCLINATION":"53.0544","EPHEMERIS_TYPE":"0","OBJECT_NAME":"STARLINK-1144","DECAY_DATE":null,"ARG_OF_PERICENTER":"81.2243","GP_ID":"195711332"},{"RA_OF_ASC_NODE":"165.7683","PERIOD":"95.592","NORAD_CAT_ID":"44934","TLE_LINE1":"1 44934U 20001W   22041.85526975  .00003610  00000-0  26110-3 0  9996","MEAN_MOTION_DOT":"0.00003610","COUNTRY_CODE":"US","REV_AT_EPOCH":"11587","SEMIMAJOR_AXIS":"6925.328","ELEMENT_SET_NO":"999","MEAN_ELEMENT_THEORY":"SGP4","CLASSIFICATION_TYPE":"U","OBJECT_ID":"2020-001W","FILE":"3297147","TIME_SYSTEM":"UTC","INCLINATION":"53.0534","EPHEMERIS_TYPE":"0","OBJECT_NAME":"STARLINK-1071","DECAY_DATE":null,"ARG_OF_PERICENTER":"85.2958","GP_ID":"195711582","OBJECT_TYPE":"PAYLOAD","MEAN_ANOMALY":"274.8178","SITE":"AFETR","REF_FRAME":"TEME","TLE_LINE2":"2 44934  53.0534 165.7683 0001285  85.2958 274.8178 15.06406568115875","EPOCH":"2022-02-10T20:31:35.306400","LAUNCH_DATE":"2020-01-07","BSTAR":"0.00026110000000","APOAPSIS":"548.083","CENTER_NAME":"EARTH","MEAN_MOTION":"15.06406568","MEAN_MOTION_DDOT":"0.0000000000000","PERIAPSIS":"546.304","RCS_SIZE":"LARGE","ECCENTRICITY":"0.00012850"},{"TLE_LINE2":"2 44937  53.0530 166.1674 0001331  78.5225 281.5914 15.06401745115867","SITE":"AFETR","REF_FRAME":"TEME","MEAN_ANOMALY":"281.5914","OBJECT_TYPE":"PAYLOAD","BSTAR":"0.00003992100000","LAUNCH_DATE":"2020-01-07","EPOCH":"2022-02-10T18:24:12.598272","MEAN_MOTION":"15.06401745","CENTER_NAME":"EARTH","APOAPSIS":"548.130","ECCENTRICITY":"0.00013310","PERIAPSIS":"546.286","RCS_SIZE":"LARGE","MEAN_MOTION_DDOT":"0.0000000000000","MEAN_MOTION_DOT":"0.00000313","TLE_LINE1":"1 44937U 20001Z   22041.76681248  .00000313  00000-0  39921-4 0  9996","NORAD_CAT_ID":"44937","PERIOD":"95.592","RA_OF_ASC_NODE":"166.1674","REV_AT_EPOCH":"11586","COUNTRY_CODE":"US","INCLINATION":"53.0530","TIME_SYSTEM":"UTC","FILE":"3297147","OBJECT_ID":"2020-001Z","MEAN_ELEMENT_THEORY":"SGP4","CLASSIFICATION_TYPE":"U","ELEMENT_SET_NO":"999","SEMIMAJOR_AXIS":"6925.343","GP_ID":"195712334","ARG_OF_PERICENTER":"78.5225","OBJECT_NAME":"STARLINK-1079","DECAY_DATE":null,"EPHEMERIS_TYPE":"0"},{"PERIOD":"95.592","NORAD_CAT_ID":"44938","MEAN_MOTION_DOT":"-0.00000099","TLE_LINE1":"1 44938U 20001AA  22041.73364041 -.00000099  00000-0  12279-4 0  9992","RA_OF_ASC_NODE":"166.3126","COUNTRY_CODE":"US","REV_AT_EPOCH":"11585","FILE":"3297147","TIME_SYSTEM":"UTC","INCLINATION":"53.0543","SEMIMAJOR_AXIS":"6925.352","ELEMENT_SET_NO":"999","MEAN_ELEMENT_THEORY":"SGP4","CLASSIFICATION_TYPE":"U","OBJECT_ID":"2020-001AA","ARG_OF_PERICENTER":"60.4255","GP_ID":"195713083","EPHEMERIS_TYPE":"0","DECAY_DATE":null,"OBJECT_NAME":"STARLINK-1082","OBJECT_TYPE":"PAYLOAD","MEAN_ANOMALY":"299.6884","SITE":"AFETR","REF_FRAME":"TEME","TLE_LINE2":"2 44938  53.0543 166.3126 0001506  60.4255 299.6884 15.06398927115855","LAUNCH_DATE":"2020-01-07","BSTAR":"0.00001227900000","EPOCH":"2022-02-10T17:36:26.531424","CENTER_NAME":"EARTH","MEAN_MOTION":"15.06398927","APOAPSIS":"548.260","ECCENTRICITY":"0.00015060","MEAN_MOTION_DDOT":"0.0000000000000","RCS_SIZE":"LARGE","PERIAPSIS":"546.174"},{"REV_AT_EPOCH":"11586","COUNTRY_CODE":"US","TLE_LINE1":"1 44939U 20001AB  22041.80734955  .00002603  00000-0  19355-3 0  9999","MEAN_MOTION_DOT":"0.00002603","NORAD_CAT_ID":"44939","PERIOD":"95.592","RA_OF_ASC_NODE":"165.9836","GP_ID":"195711832","ARG_OF_PERICENTER":"71.0841","DECAY_DATE":null,"OBJECT_NAME":"STARLINK-1083","EPHEMERIS_TYPE":"0","INCLINATION":"53.0536","TIME_SYSTEM":"UTC","FILE":"3297147","OBJECT_ID":"2020-001AB","CLASSIFICATION_TYPE":"U","MEAN_ELEMENT_THEORY":"SGP4","SEMIMAJOR_AXIS":"6925.329","ELEMENT_SET_NO":"999","BSTAR":"0.00019355000000","LAUNCH_DATE":"2020-01-07","EPOCH":"2022-02-10T19:22:35.001120","TLE_LINE2":"2 44939  53.0536 165.9836 0001397  71.0841 289.0299 15.06406466115860","REF_FRAME":"TEME","SITE":"AFETR","MEAN_ANOMALY":"289.0299","OBJECT_TYPE":"PAYLOAD","ECCENTRICITY":"0.00013970","PERIAPSIS":"546.226","RCS_SIZE":"LARGE","MEAN_MOTION_DDOT":"0.0000000000000","MEAN_MOTION":"15.06406466","CENTER_NAME":"EARTH","APOAPSIS":"548.161"}];
